[{"OBJECT_NAME":"STARLINK-2564","OBJECT_ID":"2021-036J","EPOCH":"2026-03-09T09:42:02.625984","MEAN_MOTION":15.30187265,"ECCENTRICITY":0.00015457,"INCLINATION":53.1593,"RA_OF_ASC_NODE":77.1004,"ARG_OF_PERICENTER":91.2892,"MEAN_ANOMALY":268.8285,"EPHEMERIS_TYPE":0,"CLASSIFICATION_TYPE":"U","NORAD_CAT_ID":48284,"ELEMENT_SET_NO":999,"REV_AT_EPOCH":26835,"BSTAR":-7.3525621e-5,"MEAN_MOTION_DOT":-2.535e-5,"MEAN_MOTION_DDOT":0},{"OBJECT_NAME":"CZ-6A DEB","OBJECT_ID":"2024-140RA","EPOCH":"2026-03-09T01:51:18.259488","MEAN_MOTION":15.31763252,"ECCENTRICITY":0.00411794,"INCLINATION":89.1856,"RA_OF_ASC_NODE":296.0787,"ARG_OF_PERICENTER":96.6516,"MEAN_ANOMALY":263.9425,"EPHEMERIS_TYPE":0,"CLASSIFICATION_TYPE":"U","NORAD_CAT_ID":61156,"ELEMENT_SET_NO":999,"REV_AT_EPOCH":8391,"BSTAR":0.0079173326,"MEAN_MOTION_DOT":0.00256788,"MEAN_MOTION_DDOT":0}]
